OBJECT_NAME,OBJECT_ID,EPOCH,MEAN_MOTION,ECCENTRICITY,INCLINATION,RA_OF_ASC_NODE,ARG_OF_PERICENTER,MEAN_ANOMALY,EPHEMERIS_TYPE,CLASSIFICATION_TYPE,NORAD_CAT_ID,ELEMENT_SET_NO,REV_AT_EPOCH,BSTAR,MEAN_MOTION_DOT,MEAN_MOTION_DDOT
PERSEUS-M1,2014-033AF,2026-06-11T19:37:31.960128,14.95616660,.00106351,97.9645,106.8617,321.9097,38.1370,0,U,40039,999,64983,.10262912E-3,.108E-4,0
POLYITAN-1,2014-033AJ,2026-06-11T13:40:41.692800,15.33059445,.0008221,98.0948,188.3000,157.2882,202.8723,0,U,40042,999,65273,.54049E-3,.17209E-3,0
TIGRISAT,2014-033AK,2026-06-11T22:16:21.833472,14.85142269,.00507125,97.7821,313.0607,92.0197,268.6826,0,U,40043,999,64484,.20323063E-3,.1724E-4,0
AEROCUBE 6A,2014-033AM,2026-06-11T09:54:36.178272,14.98044146,.0039279,97.7224,329.4233,37.3368,323.0573,0,U,40045,999,64575,.42915E-3,.5094E-4,0
AEROCUBE 6B,2014-033AN,2026-06-11T10:06:03.957696,14.99510732,.0038788,97.7232,329.2086,28.9974,331.3393,0,U,40046,999,64589,.42635E-3,.5257E-4,0
CANX-4,2014-034C,2026-06-11T14:42:20.460384,14.81254668,.00135486,98.3130,37.7210,34.1923,326.0159,0,U,40055,999,64370,.11381453E-3,.831E-5,0
CANX-5,2014-034D,2026-06-11T14:40:10.678080,14.81271812,.0013559,98.3132,37.7628,34.2824,325.9260,0,U,40056,999,63451,.11358295E-3,.829E-5,0
UKUBE-1,2014-037F,2026-06-11T22:41:21.693408,15.13471490,.00022787,98.4234,165.6666,138.9576,221.1824,0,U,40074,999,64776,.46543217E-3,.8252E-4,0
BRITE-PL2 (HEWELIUSZ),2014-049B,2026-06-11T19:35:36.173760,14.94577098,.00151308,97.9092,274.7753,124.3562,235.9092,0,U,40119,999,64064,.11525525E-3,.1189E-4,0
AEROCUBE 5C,2015-058B,2026-06-11T14:31:45.771168,14.91428215,.0130533,64.7678,279.9542,65.4583,296.0071,0,U,40965,999,36482,.2072E-3,.2265E-4,0
AEROCUBE 7,2015-058C,2026-06-11T21:14:32.748000,14.95692653,.01202529,64.7628,261.4224,63.8048,297.5372,0,U,40966,999,36516,.24266803E-3,.2949E-4,0
FOX-1A (AO-85),2015-058D,2026-06-11T17:14:16.526976,14.90943463,.0130128,64.7758,295.9784,58.7261,302.6519,0,U,40967,999,11275,.20996848E-3,.2264E-4,0
SINOD-D 1,2015-058E,2026-06-11T15:54:54.076896,14.95871014,.0118713,64.7758,276.2111,55.2811,305.9416,0,U,40968,999,11583,.25566961E-3,.3121E-4,0
SNAP-3 ALICE,2015-058G,2026-06-11T23:30:26.678016,15.58896412,.00296946,64.7487,121.9167,15.4989,344.7059,0,U,40970,999,11607,.14289432E-2,.115184E-2,0
LMRST-SAT,2015-058H,2026-06-11T17:44:31.337376,14.90565700,.01317931,64.7764,292.2412,60.7506,300.6707,0,U,40971,999,11274,.1975531E-3,.2106E-4,0
SNAP-3 EDDIE,2015-058J,2026-06-11T23:22:06.351168,15.60088712,.00293343,64.7413,112.6989,19.8272,340.4006,0,U,40972,999,11821,.14010123E-2,.11819E-2,0
PROPCUBE 3,2015-058K,2026-06-11T15:42:15.311232,14.94227092,.01237736,64.7688,269.8219,62.0937,299.2645,0,U,40973,999,11397,.22563369E-3,.2641E-4,0
BISONSAT,2015-058L,2026-06-11T10:14:04.992288,15.16064713,.0078569,64.7587,192.2677,49.6418,311.1532,0,U,40974,999,11474,.406E-3,.8287E-4,0
SNAP-3 JIMI,2015-058M,2026-06-11T14:20:09.614400,15.02251266,.0105888,64.7650,237.4576,57.6394,303.4919,0,U,40975,999,11338,.29449E-3,.4211E-4,0
PROPCUBE 1 (FLORA),2015-058N,2026-06-11T21:22:31.279584,14.89197473,.01305023,64.7752,311.6513,62.9948,298.4417,0,U,40976,999,11547,.21258835E-3,.2188E-4,0
SINOD-D 3,2015-058P,2026-06-11T18:02:58.671744,14.93982116,.01189985,64.7732,292.7906,60.2941,300.9953,0,U,40977,999,11394,.26726986E-3,.3105E-4,0
HORYU-4,2016-012D,2026-06-10T02:36:09.976320,15.90526809,.00034613,30.9844,130.8123,226.4757,133.5616,0,U,41340,999,56968,.10043265E-2,.337518E-2,0
RAVAN,2016-067B,2026-06-11T15:16:11.200800,15.54146019,.0005201,97.9904,51.5695,46.3690,313.7993,0,U,41849,999,52683,.71437835E-3,.46546E-3,0
CELTEE 1,2016-067C,2026-06-11T14:38:43.144512,15.19627998,.00006674,98.0686,28.7972,111.8339,248.2965,0,U,41850,999,52503,.21851383E-3,.4578E-4,0
OPTICUBE 04,2016-067D,2026-06-11T13:52:00.606720,15.09637104,.0016689,98.0710,14.5693,133.0286,227.2342,0,U,41851,999,52432,.11805E-3,.1833E-4,0
AEROCUBE 8D,2016-067E,2026-06-11T13:49:22.645056,15.24320111,.0004374,98.0697,32.3209,137.2528,222.9049,0,U,41852,999,52521,.30306E-3,.7332E-4,0
AEROCUBE 8C,2016-067F,2026-06-11T20:44:43.614816,15.24570430,.00067863,98.0569,29.8659,83.4882,276.7126,0,U,41853,999,52525,.28604292E-3,.697E-4,0
CORVUS BC2,2017-042X,2026-06-11T09:58:08.443200,15.06255418,.0014182,97.4049,323.9906,128.3697,231.8807,0,U,42846,999,48619,.17303E-3,.2485E-4,0
CORVUS BC1,2017-042Y,2026-06-11T09:51:19.485216,15.06425135,.0013167,97.4079,324.7960,106.9575,253.3097,0,U,42847,999,48622,.21789E-3,.3158E-4,0
MAKERSAT 0,2017-073D,2026-06-11T15:04:28.409376,15.31905939,.01055533,97.4637,45.1038,293.1636,65.8513,0,U,43016,999,46561,.50303151E-3,.18408E-3,0
